sat00608
1 00608U 63014C   20046.38031904  .00000010  00000-0  34609-2 0  9993
2 00608  87.3261  54.1925 0090401 234.3663 124.8746  8.65290568793358
